start=new Date('2023-03-18T00:00:00.000Z').valueOf();
sats=[{"TIME_SYSTEM":"UTC","CLASSIFICATION_TYPE":"U","MEAN_MOTION":"15.01260329","GP_ID":"228356619","LAUNCH_DATE":"2022-07-22","BSTAR":"0.00018150000000","ECCENTRICITY":"0.00006330","PERIOD":"95.919","CENTER_NAME":"EARTH","FILE":"3863544","OBJECT_TYPE":"PAYLOAD","MEAN_ANOMALY":"227.3404","APOAPSIS":"563.450","RCS_SIZE":"LARGE","NORAD_CAT_ID":"53234","TLE_LINE2":"2 53234  97.6557 139.2511 0000633 132.7874 227.3404 15.01260329 37128","INCLINATION":"97.6557","MEAN_MOTION_DOT":"0.00002273","REF_FRAME":"TEME","MEAN_ELEMENT_THEORY":"SGP4","MEAN_MOTION_DDOT":"0.0000000000000","OBJECT_NAME":"STARLINK-4368","DECAY_DATE":null,"COUNTRY_CODE":"US","EPHEMERIS_TYPE":"0","SITE":"AFWTR","TLE_LINE1":"1 53234U 22084AX  23076.88129898  .00002273  00000-0  18150-3 0  9996","OBJECT_ID":"2022-084AX","REV_AT_EPOCH":"3712","RA_OF_ASC_NODE":"139.2511","ARG_OF_PERICENTER":"132.7874","PERIAPSIS":"562.571","SEMIMAJOR_AXIS":"6941.146","ELEMENT_SET_NO":"999","EPOCH":"2023-03-17T21:09:04.231872"},{"BSTAR":"0.00029611000000","ECCENTRICITY":"0.00016140","PERIOD":"95.438","CENTER_NAME":"EARTH","TIME_SYSTEM":"UTC","CLASSIFICATION_TYPE":"U","MEAN_MOTION":"15.08835265","LAUNCH_DATE":"2022-07-24","GP_ID":"228357120","OBJECT_TYPE":"PAYLOAD","FILE":"3863544","RCS_SIZE":"LARGE","MEAN_ANOMALY":"255.1353","APOAPSIS":"540.876","MEAN_MOTION_DOT":"0.00004427","REF_FRAME":"TEME","MEAN_MOTION_DDOT":"0.0000000000000","MEAN_ELEMENT_THEORY":"SGP4","TLE_LINE2":"2 53242  53.2169  42.3422 0001614 104.9818 255.1353 15.08835265 37090","NORAD_CAT_ID":"53242","INCLINATION":"53.2169","OBJECT_NAME":"STARLINK-4056","DECAY_DATE":null,"COUNTRY_CODE":"US","EPHEMERIS_TYPE":"0","OBJECT_ID":"2022-086A","REV_AT_EPOCH":"3709","SITE":"AFETR","TLE_LINE1":"1 53242U 22086A   23076.90919254  .00004427  00000-0  29611-3 0  9990","PERIAPSIS":"538.643","RA_OF_ASC_NODE":"42.3422","ARG_OF_PERICENTER":"104.9818","EPOCH":"2023-03-17T21:49:14.235456","SEMIMAJOR_AXIS":"6917.895","ELEMENT_SET_NO":"999"},{"TLE_LINE2":"2 53243  53.2173  48.5383 0001237 118.5891 241.5225 15.08839780 37007","NORAD_CAT_ID":"53243","INCLINATION":"53.2173","MEAN_MOTION_DOT":"0.00029401","REF_FRAME":"TEME","MEAN_MOTION_DDOT":"0.0000000000000","MEAN_ELEMENT_THEORY":"SGP4","MEAN_ANOMALY":"241.5225","APOAPSIS":"540.602","RCS_SIZE":"LARGE","FILE":"3863544","OBJECT_TYPE":"PAYLOAD","CLASSIFICATION_TYPE":"U","MEAN_MOTION":"15.08839780","TIME_SYSTEM":"UTC","LAUNCH_DATE":"2022-07-24","GP_ID":"228356369","BSTAR":"0.00185770000000","ECCENTRICITY":"0.00012370","PERIOD":"95.438","CENTER_NAME":"EARTH","SEMIMAJOR_AXIS":"6917.881","ELEMENT_SET_NO":"999","EPOCH":"2023-03-17T15:29:41.212896","RA_OF_ASC_NODE":"48.5383","ARG_OF_PERICENTER":"118.5891","PERIAPSIS":"538.890","SITE":"AFETR","TLE_LINE1":"1 53243U 22086B   23076.64561589  .00029401  00000-0  18577-2 0  9993","OBJECT_ID":"2022-086B","REV_AT_EPOCH":"3700","OBJECT_NAME":"STARLINK-4047","DECAY_DATE":null,"EPHEMERIS_TYPE":"0","COUNTRY_CODE":"US"},{"PERIAPSIS":"539.057","ARG_OF_PERICENTER":"80.2415","RA_OF_ASC_NODE":"49.4788","EPOCH":"2023-03-17T10:27:37.288800","SEMIMAJOR_AXIS":"6917.865","ELEMENT_SET_NO":"999","OBJECT_NAME":"STARLINK-4125","DECAY_DATE":null,"COUNTRY_CODE":"US","EPHEMERIS_TYPE":"0","REV_AT_EPOCH":"3695","OBJECT_ID":"2022-086C","SITE":"AFETR","TLE_LINE1":"1 53244U 22086C   23076.43584825  .00012411  00000-0  79640-3 0  9991","RCS_SIZE":"LARGE","MEAN_ANOMALY":"279.8687","APOAPSIS":"540.404","REF_FRAME":"TEME","MEAN_MOTION_DOT":"0.00012411","MEAN_MOTION_DDOT":"0.0000000000000","MEAN_ELEMENT_THEORY":"SGP4","NORAD_CAT_ID":"53244","TLE_LINE2":"2 53244  53.2177  49.4788 0000974  80.2415 279.8687 15.08844909 36953","INCLINATION":"53.2177","BSTAR":"0.00079640000000","CENTER_NAME":"EARTH","ECCENTRICITY":"0.00009740","PERIOD":"95.437","TIME_SYSTEM":"UTC","CLASSIFICATION_TYPE":"U","MEAN_MOTION":"15.08844909","GP_ID":"228326071","LAUNCH_DATE":"2022-07-24","OBJECT_TYPE":"PAYLOAD","FILE":"3863278"},{"APOAPSIS":"540.720","MEAN_ANOMALY":"279.2484","RCS_SIZE":"LARGE","INCLINATION":"53.2175","NORAD_CAT_ID":"53245","TLE_LINE2":"2 53245  53.2175  48.5588 0001378  80.8664 279.2484 15.08833025 37004","MEAN_MOTION_DDOT":"0.0000000000000","MEAN_ELEMENT_THEORY":"SGP4","REF_FRAME":"TEME","MEAN_MOTION_DOT":"0.00004892","GP_ID":"228357370","LAUNCH_DATE":"2022-07-24","MEAN_MOTION":"15.08833025","CLASSIFICATION_TYPE":"U","TIME_SYSTEM":"UTC","CENTER_NAME":"EARTH","ECCENTRICITY":"0.00013780","PERIOD":"95.438","BSTAR":"0.00032528000000","FILE":"3863544","OBJECT_TYPE":"PAYLOAD","ARG_OF_PERICENTER":"80.8664","RA_OF_ASC_NODE":"48.5588","PERIAPSIS":"538.813","ELEMENT_SET_NO":"999","SEMIMAJOR_AXIS":"6917.902","EPOCH":"2023-03-17T15:24:22.980960","DECAY_DATE":null,"EPHEMERIS_TYPE":"0","COUNTRY_CODE":"US","OBJECT_NAME":"STARLINK-4124","TLE_LINE1":"1 53245U 22086D   23076.64193265  .00004892  00000-0  32528-3 0  9997","SITE":"AFETR","REV_AT_EPOCH":"3700","OBJECT_ID":"2022-086D"},{"EPHEMERIS_TYPE":"0","DECAY_DATE":null,"COUNTRY_CODE":"US","OBJECT_NAME":"STARLINK-4131","TLE_LINE1":"1 53246U 22086E   23076.90321256  .00011057  00000-0  71178-3 0  9995","SITE":"AFETR","OBJECT_ID":"2022-086E","REV_AT_EPOCH":"3591","RA_OF_ASC_NODE":"47.3821","ARG_OF_PERICENTER":"92.2437","PERIAPSIS":"539.369","ELEMENT_SET_NO":"999","SEMIMAJOR_AXIS":"6917.890","EPOCH":"2023-03-17T21:40:37.565184","GP_ID":"228357620","LAUNCH_DATE":"2022-07-24","CLASSIFICATION_TYPE":"U","MEAN_MOTION":"15.08836864","TIME_SYSTEM":"UTC","ECCENTRICITY":"0.00005580","PERIOD":"95.438","CENTER_NAME":"EARTH","BSTAR":"0.00071178000000","FILE":"3863544","OBJECT_TYPE":"PAYLOAD","APOAPSIS":"540.141","MEAN_ANOMALY":"267.8619","RCS_SIZE":"LARGE","INCLINATION":"53.2172","TLE_LINE2":"2 53246  53.2172  47.3821 0000558  92.2437 267.8619 15.08836864 35918","NORAD_CAT_ID":"53246","MEAN_ELEMENT_THEORY":"SGP4","MEAN_MOTION_DDOT":"0.0000000000000","MEAN_MOTION_DOT":"0.00011057","REF_FRAME":"TEME"},{"TLE_LINE1":"1 53247U 22086F   23076.64150928  .00016593  00000-0  10583-2 0  9995","SITE":"AFETR","REV_AT_EPOCH":"3705","OBJECT_ID":"2022-086F","DECAY_DATE":null,"EPHEMERIS_TYPE":"0","COUNTRY_CODE":"US","OBJECT_NAME":"STARLINK-4061","ELEMENT_SET_NO":"999","SEMIMAJOR_AXIS":"6917.891","EPOCH":"2023-03-17T15:23:46.401792","ARG_OF_PERICENTER":"87.3148","RA_OF_ASC_NODE":"43.5570","PERIAPSIS":"538.547","FILE":"3863544","OBJECT_TYPE":"PAYLOAD","GP_ID":"228355870","LAUNCH_DATE":"2022-07-24","MEAN_MOTION":"15.08836537","CLASSIFICATION_TYPE":"U","TIME_SYSTEM":"UTC","CENTER_NAME":"EARTH","PERIOD":"95.438","ECCENTRICITY":"0.00017480","BSTAR":"0.00105830000000","INCLINATION":"53.2158","TLE_LINE2":"2 53247  53.2158  43.5570 0001748  87.3148 272.8044 15.08836537 37050","NORAD_CAT_ID":"53247","MEAN_ELEMENT_THEORY":"SGP4","MEAN_MOTION_DDOT":"0.0000000000000","REF_FRAME":"TEME","MEAN_MOTION_DOT":"0.00016593","APOAPSIS":"540.965","MEAN_ANOMALY":"272.8044","RCS_SIZE":"LARGE"},{"PERIAPSIS":"538.758","ARG_OF_PERICENTER":"89.4536","RA_OF_ASC_NODE":"43.5723","EPOCH":"2023-03-17T15:18:28.612224","SEMIMAJOR_AXIS":"6917.892","ELEMENT_SET_NO":"999","OBJECT_NAME":"STARLINK-4135","EPHEMERIS_TYPE":"0","DECAY_DATE":null,"COUNTRY_CODE":"US","REV_AT_EPOCH":"3705","OBJECT_ID":"2022-086G","SITE":"AFETR","TLE_LINE1":"1 53248U 22086G   23076.63783116  .00014101  00000-0  90237-3 0  9994","RCS_SIZE":"LARGE","MEAN_ANOMALY":"270.6622","APOAPSIS":"540.756","REF_FRAME":"TEME","MEAN_MOTION_DOT":"0.00014101","MEAN_ELEMENT_THEORY":"SGP4","MEAN_MOTION_DDOT":"0.0000000000000","TLE_LINE2":"2 53248  53.2162  43.5723 0001444  89.4536 270.6622 15.08836251 37054","NORAD_CAT_ID":"53248","INCLINATION":"53.2162","BSTAR":"0.00090237000000","CENTER_NAME":"EARTH","PERIOD":"95.438","ECCENTRICITY":"0.00014440","CLASSIFICATION_TYPE":"U","TIME_SYSTEM":"UTC","MEAN_MOTION":"15.08836251","GP_ID":"228356620","LAUNCH_DATE":"2022-07-24","OBJECT_TYPE":"PAYLOAD","FILE":"3863544"},{"APOAPSIS":"540.312","MEAN_ANOMALY":"295.3703","RCS_SIZE":"LARGE","INCLINATION":"53.2143","TLE_LINE2":"2 53249  53.2143  37.3278 0000785  64.7371 295.3703 15.08832159 36865","NORAD_CAT_ID":"53249","MEAN_MOTION_DDOT":"0.0000000000000","MEAN_ELEMENT_THEORY":"SGP4","MEAN_MOTION_DOT":"0.00001951","REF_FRAME":"TEME","GP_ID":"228356871","LAUNCH_DATE":"2022-07-24","TIME_SYSTEM":"UTC","CLASSIFICATION_TYPE":"U","MEAN_MOTION":"15.08832159","PERIOD":"95.438","ECCENTRICITY":"0.00007850","CENTER_NAME":"EARTH","BSTAR":"0.00014065000000","FILE":"3863544","OBJECT_TYPE":"PAYLOAD","RA_OF_ASC_NODE":"37.3278","ARG_OF_PERICENTER":"64.7371","PERIAPSIS":"539.226","ELEMENT_SET_NO":"999","SEMIMAJOR_AXIS":"6917.904","EPOCH":"2023-03-17T21:57:51.047424","EPHEMERIS_TYPE":"0","DECAY_DATE":null,"COUNTRY_CODE":"US","OBJECT_NAME":"STARLINK-4128","TLE_LINE1":"1 53249U 22086H   23076.91517416  .00001951  00000-0  14065-3 0  9998","SITE":"AFETR","OBJECT_ID":"2022-086H","REV_AT_EPOCH":"3686"},{"INCLINATION":"53.2168","NORAD_CAT_ID":"53250","TLE_LINE2":"2 53250  53.2168  38.7985 0000688  70.4229 289.6837 15.08843412 36613","MEAN_ELEMENT_THEORY":"SGP4","MEAN_MOTION_DDOT":"0.0000000000000","REF_FRAME":"TEME","MEAN_MOTION_DOT":"0.00010091","APOAPSIS":"540.211","MEAN_ANOMALY":"289.6837","RCS_SIZE":"LARGE","FILE":"3863188","OBJECT_TYPE":"PAYLOAD","GP_ID":"228299084","LAUNCH_DATE":"2022-07-24","TIME_SYSTEM":"UTC","CLASSIFICATION_TYPE":"U","MEAN_MOTION":"15.08843412","CENTER_NAME":"EARTH","PERIOD":"95.437","ECCENTRICITY":"0.00006880","BSTAR":"0.00065113000000","ELEMENT_SET_NO":"999","SEMIMAJOR_AXIS":"6917.870","EPOCH":"2023-03-17T14:06:12.559104","ARG_OF_PERICENTER":"70.4229","RA_OF_ASC_NODE":"38.7985","PERIAPSIS":"539.259","TLE_LINE1":"1 53250U 22086J   23076.58764536  .00010091  00000-0  65113-3 0  9995","SITE":"AFETR","REV_AT_EPOCH":"3661","OBJECT_ID":"2022-086J","COUNTRY_CODE":"US","DECAY_DATE":null,"EPHEMERIS_TYPE":"0","OBJECT_NAME":"STARLINK-4059"}];
